VENUE,ADDRESS,CITY,STATE,ZIP
Annapolis Symphony Orchestra,801 Chase Street,Annapolis,MD,21401
Baltimore Symphony Orchestra,1212 Cathedral Street,Baltimore,MD,21201
Clarice Smith Performing Arts Center at Maryland,3112 Lee Building,College Park,MD,20742
Creative Alliance,3134 Eastern Avenue,Baltimore,MD,21224
Gordon Center for Performing Arts,3506 Gwynnbrook Avenue,Owings Mills,MD,21117
Lyric Opera House,110 West Mount Royal Avenue,Baltimore,MD,21201
Maryland Hall for the Creative Arts,801 Chase Street,Annapolis,MD,21401
Maryland Symphony Orchestra,13 South Potomac Street,Hagerstown,MD,21740
Montpelier Arts Center,9652 Muirkirk Road,Laurel,MD,20708
New Embassy Theatre,49 Baltimore Street,Cumberland,MD,21502
The Music Center At Strathmore,5301 Tuckerman Lane,North Bethesda,MD,20852
John Addison Concert Hall,10701 Livingston Road,Fort Washington,MD,20744
Maryland Art Gallery,3501 University Boulevard East,Hyattsville,MD,20783
Bethesda Blues & Jazz Supper Club,7719 Wisconsin Avenue,Bethesda,MD,20842
Rams Head On Stage,33 West Street,Annapolis,MD,21401
Merriweather Post Pavilion,10475 Little Patuxent Parkway,Columbia,MD,21044
The 8X10,10 E Cross Street,Baltimore,MD,21230
Pier Six Pavilion,731 Eastern Avenue,Baltimore,MD,21202
Baltimore Soundstage,124 Market Place,Baltimore,MD,21202
The Bambou,229 N Franklintown Road,Baltimore,MD,21223
Joseph Meyerhoff Symphony Hall,1212 Cathedral Street,Baltimore,MD,21201
The Lyric,140 W Mt Royal Avenue,Baltimore,MD,21201
Galesville Memorial Hall,952 Main Street,Galesville,MD,20765
Baker Park Bandshell,21 N Bentz Street,Frederick,MD,21701
Club 66,207 Edgewood Road,Edgewood,MD,21040
